IRIDIUM 116             
1 43072U 17083C   25213.18679565  .00000025  00000+0  19223-5 0  9993
2 43072  86.3942  95.8005 0002077  92.4897 267.6536 14.34217804398304
IRIDIUM 130             
1 43073U 17083D   25213.22485032  .00000087  00000+0  23917-4 0  9995
2 43073  86.3953  96.0289 0001848  92.6756 267.4652 14.34218205398252
IRIDIUM 151             
1 43074U 17083E   25213.19948037  .00000111  00000+0  32615-4 0  9994
2 43074  86.3946  95.8458 0002126  92.1925 267.9514 14.34218234398279
IRIDIUM 134             
1 43075U 17083F   25213.16776741  .00000029  00000+0  34644-5 0  9996
2 43075  86.3946  95.8626 0001873  89.9537 270.1873 14.34217781398234
IRIDIUM 137             
1 43076U 17083G   25213.18045379  .00000055  00000+0  12744-4 0  9990
2 43076  86.3949  95.9437 0002505  98.2064 261.9416 14.34217985398305
IRIDIUM 141             
1 43077U 17083H   25213.17411075  .00000103  00000+0  29684-4 0  9995
2 43077  86.3944  95.7951 0002236  81.6577 278.4872 14.34217664398309
IRIDIUM 153             
1 43078U 17083J   25213.54489916  .00000142  00000+0  43759-4 0  9998
2 43078  86.3924  64.0943 0002111  75.5892 284.5538 14.34217731399462
IRIDIUM 131             
1 43079U 17083K   25213.16142565  .00000006  00000+0 -50706-5 0  9994
2 43079  86.3950  95.9650 0002176  83.4281 276.7163 14.34217553398234
